BEIDOU-2 IGSO-1 (C06)   
1 36828U 10036A   23072.65401411 -.00000130  00000+0  00000+0 0  9996
2 36828  54.2116 173.7698 0035391 186.7768 154.4868  1.00273420 46277
BEIDOU-2 G4 (C04)       
1 37210U 10057A   23072.67688144 -.00000108  00000+0  00000+0 0  9992
2 37210   1.0399  55.9157 0003272 175.0801 343.7480  1.00271248 45334
BEIDOU-2 IGSO-2 (C07)   
1 37256U 10068A   23073.29730234 -.00000165  00000+0  00000+0 0  9994
2 37256  49.7242 286.4065 0023266 203.1634 257.5723  1.00282570 44859
BEIDOU-2 IGSO-3 (C08)   
1 37384U 11013A   23073.22088851 -.00000154  00000+0  00000+0 0  9999
2 37384  60.6879  51.5939 0023540 188.8526 117.7257  1.00283164 43728
BEIDOU-2 IGSO-4 (C09)   
1 37763U 11038A   23073.47970318 -.00000077  00000+0  00000+0 0  9996
2 37763  54.4871 176.2770 0105208 227.8907  35.5185  1.00267389 42704
BEIDOU-2 IGSO-5 (C10)   
1 37948U 11073A   23073.21737462 -.00000119  00000+0  00000+0 0  9990
2 37948  49.8463 286.0622 0085078 219.6327 200.4528  1.00272612 41468
BEIDOU-2 G5 (C05)       
1 38091U 12008A   23070.87539516  .00000062  00000+0  00000+0 0  9994
2 38091   2.1803  71.8429 0014059 312.0414 159.4151  1.00278580 40519
BEIDOU-2 M3 (C11)       
1 38250U 12018A   23073.01286829 -.00000077  00000+0  00000+0 0  9994
2 38250  56.5973 344.6475 0022500 263.2197 314.6682  1.86231295 74106
BEIDOU-2 M4 (C12)       
1 38251U 12018B   23072.38397863 -.00000076  00000+0  00000+0 0  9994
2 38251  56.5115 343.9747 0013835 269.7948 291.1424  1.86234301 74097
BEIDOU-2 M6 (C14)       
1 38775U 12050B   23073.35646013  .00000028  00000+0  00000+0 0  9999
2 38775  55.5679 102.6055 0014187 321.7005   6.2870  1.86231324 71480
BEIDOU-2 G6 (C02)       
1 38953U 12059A   23073.09771550 -.00000173  00000+0  00000+0 0  9994
2 38953   1.5928  82.4017 0011293 302.2163 266.0688  1.00272621 38109
BEIDOU-3S IGSO-1S (C31) 
1 40549U 15019A   23072.73117267 -.00000148  00000+0  00000+0 0  9998
2 40549  51.4131 309.6149 0035975 193.2745  24.9710  1.00295504 29135
BEIDOU-3S M2S (C57)     
1 40748U 15037A   23072.52762522 -.00000076  00000+0  00000+0 0  9996
2 40748  55.7561 342.6718 0005498   8.7950 197.5097  1.86233340 51925
BEIDOU-3S M1S (C58)     
1 40749U 15037B   23073.48537304 -.00000077  00000+0  00000+0 0  9992
2 40749  55.7586 342.6296 0006715 336.1757 286.2399  1.86233053 51933
BEIDOU-3S IGSO-2S (C56) 
1 40938U 15053A   23073.21586420 -.00000093  00000+0  00000+0 0  9992
2 40938  51.0805 272.7571 0043953 192.5442 240.4602  1.00276914 27408
BEIDOU-2 IGSO-6 (C13)   
1 41434U 16021A   23073.22832831 -.00000134  00000+0  00000+0 0  9997
2 41434  58.4974  50.0463 0048907 226.2151  73.7912  1.00273182 25538
BEIDOU-2 G7 (C03)       
1 41586U 16037A   23073.54007757 -.00000353  00000+0  00000+0 0  9991
2 41586   1.4742  64.5283 0010084 346.2713  66.0694  1.00270142 24847
BEIDOU-3 M1 (C19)       
1 43001U 17069A   23072.91093428  .00000027  00000+0  00000+0 0  9998
2 43001  55.7203 102.6567 0011828 289.4792 256.2800  1.86231548 36415
BEIDOU-3 M2 (C20)       
1 43002U 17069B   23072.84632624  .00000027  00000+0  00000+0 0  9998
2 43002  55.7188 102.6949 0009339 307.5728 237.5830  1.86231252 36403
BEIDOU-3 M7 (C27)       
1 43107U 18003A   23072.10825602 -.00000076  00000+0  00000+0 0  9997
2 43107  55.2100 343.4829 0004839  45.0803 171.8356  1.86232392 35158
BEIDOU-3 M8 (C28)       
1 43108U 18003B   23072.55597397 -.00000077  00000+0  00000+0 0  9995
2 43108  55.2022 343.4559 0003269 280.3793 279.1026  1.86231221 35167
BEIDOU-3 M4 (C22)       
1 43207U 18018A   23072.16479846  .00000027  00000+0  00000+0 0  9990
2 43207  55.6817 102.7873 0005882 325.4096  34.6201  1.86231421 34540
BEIDOU-3 M3 (C21)       
1 43208U 18018B   23072.23138168  .00000027  00000+0  00000+0 0  9998
2 43208  55.6786 102.7891 0009276 297.4321  62.5396  1.86231541 34544
BEIDOU-3 M9 (C29)       
1 43245U 18029A   23073.22726259 -.00000076  00000+0  00000+0 0  9990
2 43245  55.1119 341.1945 0001580 337.5464 180.2548  1.86232586 33718
BEIDOU-3 M10 (C30)      
1 43246U 18029B   23072.91407895 -.00000076  00000+0  10000-3 0  9993
2 43246  55.1106 341.2382 0005260   0.1323 354.4358  1.86232735 33694
BEIDOU-2 IGSO-7 (C16)   
1 43539U 18057A   23072.67688406 -.00000133  00000+0  00000+0 0  9990
2 43539  55.1046 173.3653 0057505 228.5831 124.7610  1.00284142 17209
BEIDOU-3 M5 (C23)       
1 43581U 18062A   23072.34354947  .00000065  00000+0  00000+0 0  9990
2 43581  54.2120 222.8856 0001430 325.0737 218.7554  1.86231847 31438
BEIDOU-3 M6 (C24)       
1 43582U 18062B   23072.51881463  .00000065  00000+0  00000+0 0  9998
2 43582  54.2122 222.8689 0006568  32.2268   0.5388  1.86229501 31445
BEIDOU-3 M12 (C26)      
1 43602U 18067A   23072.51371053  .00000064  00000+0  00000+0 0  9994
2 43602  54.2979 221.5085 0007822  24.0493  46.7171  1.86231633 30931
BEIDOU-3 M11 (C25)      
1 43603U 18067B   23072.59546698  .00000064  00000+0  00000+0 0  9992
2 43603  54.2934 221.4718 0004583  20.5680  15.3301  1.86231545 30956
BEIDOU-3 M13 (C32)      
1 43622U 18072A   23072.49702141  .00000027  00000+0  00000+0 0  9994
2 43622  55.6465 102.3201 0008348 284.3064  73.9382  1.86231409 30457
BEIDOU-3 M14 (C33)      
1 43623U 18072B   23072.59820888  .00000027  00000+0  00000+0 0  9995
2 43623  55.6494 102.3097 0006157 303.8029 212.5235  1.86231556 30469
BEIDOU-3 M16 (C35)      
1 43647U 18078A   23072.10551595 -.00000075  00000+0  10000-3 0  9999
2 43647  55.0077 341.3696 0008637   6.9824  73.0913  1.86227463 29963
BEIDOU-3 M15 (C34)      
1 43648U 18078B   23072.38621682 -.00000075  00000+0  00000+0 0  9990
2 43648  55.0026 341.3642 0005485  13.0485 164.5218  1.86232173 29989
BEIDOU-3 G1 (C59)       
1 43683U 18085A   23072.84841299 -.00000275  00000+0  00000+0 0  9998
2 43683   1.1611 139.2073 0001809  27.9945  89.4239  1.00275225 16113
BEIDOU-3 M17 (C36)      
1 43706U 18093A   23073.34461690  .00000061  00000+0  00000+0 0  9994
2 43706  54.2933 222.7566 0007054 283.3396  76.5483  1.86231753 29345
BEIDOU-3 M18 (C37)      
1 43707U 18093B   23072.94771799  .00000063  00000+0  00000+0 0  9996
2 43707  54.2937 222.7610 0006106 322.0311 223.0538  1.86229832 29340
BEIDOU-3 IGSO-1 (C38)   
1 44204U 19023A   23073.32553242 -.00000191  00000+0  00000+0 0  9990
2 44204  56.9597  50.0849 0020539 208.9882 149.3156  1.00281376 14416
BEIDOU-2 G8 (C01)       
1 44231U 19027A   23072.84841297 -.00000243  00000+0  00000+0 0  9998
2 44231   1.5192  80.9756 0004703 141.8987  38.2641  1.00275051 14124
BEIDOU-3 IGSO-2 (C39)   
1 44337U 19035A   23073.35003326 -.00000145  00000+0  00000+0 0  9995
2 44337  55.1399 169.3252 0030051 196.0456  51.9869  1.00275109 13752
BEIDOU-3 M24 (C46)      
1 44542U 19061A   23073.28148741  .00000062  00000+0  00000+0 0  9992
2 44542  54.5202 222.9538 0007808   0.6454 359.3220  1.86231117 23618
BEIDOU-3 M23 (C45)      
1 44543U 19061B   23072.80773516  .00000064  00000+0  00000+0 0  9996
2 44543  54.5213 222.9418 0005075   2.4203 311.5658  1.86231637 23593
BEIDOU-3 IGSO-3 (C40)   
1 44709U 19073A   23071.96411400 -.00000152  00000+0  00000+0 0  9999
2 44709  56.8227 293.5883 0028959 178.0221 165.1009  1.00280996 12480
BEIDOU-3 M22 (C44)      
1 44793U 19078A   23072.31087154 -.00000075  00000+0  10000-3 0  9991
2 44793  54.8560 341.3504 0007306   9.6620 163.5814  1.86232091 22459
BEIDOU-3 M21 (C43)      
1 44794U 19078B   23073.51560551 -.00000077  00000+0  00000+0 0  9999
2 44794  54.8291 341.2950 0005265   4.7268 168.3802  1.86232581 22477
BEIDOU-3 M19 (C41)      
1 44864U 19090A   23073.61392748  .00000029  00000+0  00000+0 0  9999
2 44864  55.5817 102.4799 0019207 272.8193 160.3514  1.86231836 22060
BEIDOU-3 M20 (C42)      
1 44865U 19090B   23071.48401369  .00000027  00000+0  00000+0 0  9991
2 44865  55.5841 102.5835 0016866 284.6576 250.3290  1.86231711 21998
BEIDOU-3 G2 (C60)       
1 45344U 20017A   23072.96021813 -.00000137  00000+0  00000+0 0  9994
2 45344   1.9910   6.6348 0001613  40.1221 190.2745  1.00271684 11324
BEIDOU-3 G3 (C61)       
1 45807U 20040A   23073.50465965 -.00000352  00000+0  00000+0 0  9994
2 45807   0.8703 317.9162 0006115 339.8314 166.3465  1.00271773 10142
